{
  "links" : {
    "next" : "https://api.nasa.gov/neo/rest/v1/feed?start_date=2006-10-09&end_date=2006-10-09&detailed=true&api_key=t0TVs3DtDT2H8Oy2Zy8m2eVrNsAVKAexjcZXUckd",
    "prev" : "https://api.nasa.gov/neo/rest/v1/feed?start_date=2006-10-07&end_date=2006-10-07&detailed=true&api_key=t0TVs3DtDT2H8Oy2Zy8m2eVrNsAVKAexjcZXUckd",
    "self" : "https://api.nasa.gov/neo/rest/v1/feed?start_date=2006-10-08&end_date=2006-10-08&detailed=true&api_key=t0TVs3DtDT2H8Oy2Zy8m2eVrNsAVKAexjcZXUckd"
  },
  "element_count" : 3,
  "near_earth_objects" : {
    "2006-10-08" : [ {
      "links" : {
        "self" : "https://api.nasa.gov/neo/rest/v1/neo/2163015?api_key=t0TVs3DtDT2H8Oy2Zy8m2eVrNsAVKAexjcZXUckd"
      },
      "neo_reference_id" : "2163015",
      "name" : "163015 (2001 UX16)",
      "nasa_jpl_url" : "http://ssd.jpl.nasa.gov/sbdb.cgi?sstr=2163015",
      "absolute_magnitude_h" : 21.9,
      "estimated_diameter" : {
        "kilometers" : {
          "estimated_diameter_min" : 0.1108038821,
          "estimated_diameter_max" : 0.2477650126
        },
        "meters" : {
          "estimated_diameter_min" : 110.8038821264,
          "estimated_diameter_max" : 247.7650126055
        },
        "miles" : {
          "estimated_diameter_min" : 0.068850319,
          "estimated_diameter_max" : 0.1539539936
        },
        "feet" : {
          "estimated_diameter_min" : 363.5298086356,
          "estimated_diameter_max" : 812.8773639568
        }
      },
      "is_potentially_hazardous_asteroid" : false,
      "close_approach_data" : [ {
        "close_approach_date" : "2006-10-08",
        "epoch_date_close_approach" : 1160290800000,
        "relative_velocity" : {
          "kilometers_per_second" : "7.0882262361",
          "kilometers_per_hour" : "25517.6144501342",
          "miles_per_hour" : "15855.6532676404"
        },
        "miss_distance" : {
          "astronomical" : "0.4839202228",
          "lunar" : "188.2449645996",
          "kilometers" : "72393432",
          "miles" : "44983196"
        },
        "orbiting_body" : "Earth"
      } ],
      "orbital_data" : {
        "orbit_id" : "16",
        "orbit_determination_date" : "2017-04-06 09:26:20",
        "orbit_uncertainty" : "0",
        "minimum_orbit_intersection" : ".0636065",
        "jupiter_tisserand_invariant" : "4.626",
        "epoch_osculation" : "2458000.5",
        "eccentricity" : ".3682879612510763",
        "semi_major_axis" : "1.417023115751214",
        "inclination" : "10.61872375043223",
        "ascending_node_longitude" : "213.4325613214161",
        "orbital_period" : "616.1179038963514",
        "perihelion_distance" : ".8951505614055516",
        "perihelion_argument" : "254.491696114774",
        "aphelion_distance" : "1.938895670096877",
        "perihelion_time" : "2457823.738803632517",
        "mean_anomaly" : "103.2822294075046",
        "mean_motion" : ".5843037472590024",
        "equinox" : "J2000"
      }
    }, {
      "links" : {
        "self" : "https://api.nasa.gov/neo/rest/v1/neo/2187026?api_key=t0TVs3DtDT2H8Oy2Zy8m2eVrNsAVKAexjcZXUckd"
      },
      "neo_reference_id" : "2187026",
      "name" : "187026 (2005 EK70)",
      "nasa_jpl_url" : "http://ssd.jpl.nasa.gov/sbdb.cgi?sstr=2187026",
      "absolute_magnitude_h" : 17.3,
      "estimated_diameter" : {
        "kilometers" : {
          "estimated_diameter_min" : 0.9216265485,
          "estimated_diameter_max" : 2.0608196123
        },
        "meters" : {
          "estimated_diameter_min" : 921.6265485028,
          "estimated_diameter_max" : 2060.8196123208
        },
        "miles" : {
          "estimated_diameter_min" : 0.5726720101,
          "estimated_diameter_max" : 1.2805335433
        },
        "feet" : {
          "estimated_diameter_min" : 3023.70924539,
          "estimated_diameter_max" : 6761.2194168867
        }
      },
      "is_potentially_hazardous_asteroid" : false,
      "close_approach_data" : [ {
        "close_approach_date" : "2006-10-08",
        "epoch_date_close_approach" : 1160290800000,
        "relative_velocity" : {
          "kilometers_per_second" : "21.4428502744",
          "kilometers_per_hour" : "77194.2609877399",
          "miles_per_hour" : "47965.5117787432"
        },
        "miss_distance" : {
          "astronomical" : "0.4796883979",
          "lunar" : "186.5987854004",
          "kilometers" : "71760368",
          "miles" : "44589824"
        },
        "orbiting_body" : "Earth"
      } ],
      "orbital_data" : {
        "orbit_id" : "74",
        "orbit_determination_date" : "2017-04-06 09:25:47",
        "orbit_uncertainty" : "1",
        "minimum_orbit_intersection" : ".0979447",
        "jupiter_tisserand_invariant" : "6.159",
        "epoch_osculation" : "2458000.5",
        "eccentricity" : ".1354572152919213",
        "semi_major_axis" : ".9596373891633441",
        "inclination" : "30.00102074366315",
        "ascending_node_longitude" : "329.8129979037432",
        "orbital_period" : "343.3674851079799",
        "perihelion_distance" : ".8296475807372676",
        "perihelion_argument" : "347.0500941959632",
        "aphelion_distance" : "1.089627197589421",
        "perihelion_time" : "2458112.532298359535",
        "mean_anomaly" : "242.5409243488813",
        "mean_motion" : "1.048439399807438",
        "equinox" : "J2000"
      }
    }, {
      "links" : {
        "self" : "https://api.nasa.gov/neo/rest/v1/neo/3429821?api_key=t0TVs3DtDT2H8Oy2Zy8m2eVrNsAVKAexjcZXUckd"
      },
      "neo_reference_id" : "3429821",
      "name" : "(2008 TF2)",
      "nasa_jpl_url" : "http://ssd.jpl.nasa.gov/sbdb.cgi?sstr=3429821",
      "absolute_magnitude_h" : 25.1,
      "estimated_diameter" : {
        "kilometers" : {
          "estimated_diameter_min" : 0.0253837029,
          "estimated_diameter_max" : 0.0567596853
        },
        "meters" : {
          "estimated_diameter_min" : 25.3837029364,
          "estimated_diameter_max" : 56.7596852866
        },
        "miles" : {
          "estimated_diameter_min" : 0.0157726969,
          "estimated_diameter_max" : 0.0352688224
        },
        "feet" : {
          "estimated_diameter_min" : 83.279867942,
          "estimated_diameter_max" : 186.2194458756
        }
      },
      "is_potentially_hazardous_asteroid" : false,
      "close_approach_data" : [ {
        "close_approach_date" : "2006-10-08",
        "epoch_date_close_approach" : 1160290800000,
        "relative_velocity" : {
          "kilometers_per_second" : "9.5645363521",
          "kilometers_per_hour" : "34432.3308677158",
          "miles_per_hour" : "21394.9113661093"
        },
        "miss_distance" : {
          "astronomical" : "0.2023148768",
          "lunar" : "78.7004928589",
          "kilometers" : "30265876",
          "miles" : "18806344"
        },
        "orbiting_body" : "Earth"
      } ],
      "orbital_data" : {
        "orbit_id" : "8",
        "orbit_determination_date" : "2017-04-06 09:02:41",
        "orbit_uncertainty" : "7",
        "minimum_orbit_intersection" : ".0120203",
        "jupiter_tisserand_invariant" : "6.039",
        "epoch_osculation" : "2458000.5",
        "eccentricity" : ".3586669875545043",
        "semi_major_axis" : ".9900081678857322",
        "inclination" : "15.97582899586421",
        "ascending_node_longitude" : "196.6115408830449",
        "orbital_period" : "359.7962175422666",
        "perihelion_distance" : ".6349249206558026",
        "perihelion_argument" : "295.2610155261298",
        "aphelion_distance" : "1.345091415115662",
        "perihelion_time" : "2458063.805210670148",
        "mean_anomaly" : "296.6589343353062",
        "mean_motion" : "1.000566382990698",
        "equinox" : "J2000"
      }
    } ]
  }
}